{"type":"FeatureCollection","crs":{"type":"name","properties":{"name":"EPSG:4326"}},"features":[{"type":"Feature","id":1,"geometry":{"type":"Point","coordinates":[-75.674851201245,45.3491538698267,0]},"properties":{"OBJECTID":1,"YEAR":2018,"REP_DATE":"Tue, 09 Jan 2018 05:00:00 GMT","OCC_DATE":"Tue, 09 Jan 2018 05:00:00 GMT","WEEKDAY":"Wednesday","OFF_CATEG":"Murder 1st Dgree","SECTOR":"35","DIVISION":"East","NB_NAME_EN":"Hunt Club East - Western Community","WARD":"Ward 16 - River","COUNCILLOR":"Riley Brockington"}},{"type":"Feature","id":2,"geometry":{"type":"Point","coordinates":[-75.8359345590253,45.3175509684218,0]},"properties":{"OBJECTID":2,"YEAR":2018,"REP_DATE":"Wed, 17 Jan 2018 05:00:00 GMT","OCC_DATE":"Wed, 17 Jan 2018 05:00:00 GMT","WEEKDAY":"Thursday","OFF_CATEG":"Murder 2nd Dgree","SECTOR":"15","DIVISION":"West","NB_NAME_EN":"Bells Corners West","WARD":"Ward 8 - College","COUNCILLOR":"Laine Johnson"}},{"type":"Feature","id":3,"geometry":{"type":"Point","coordinates":[-75.6854019497223,45.41519013315,0]},"properties":{"OBJECTID":3,"YEAR":2018,"REP_DATE":"Thu, 18 Jan 2018 05:00:00 GMT","OCC_DATE":"Thu, 18 Jan 2018 05:00:00 GMT","WEEKDAY":"Friday","OFF_CATEG":"Murder 2nd Dgree","SECTOR":"23","DIVISION":"Central","NB_NAME_EN":"Centretown","WARD":"Ward 14 - Somerset","COUNCILLOR":"Ariel Troster"}},{"type":"Feature","id":4,"geometry":{"type":"Point","coordinates":[-75.7064011856844,45.3288782319155,0]},"properties":{"OBJECTID":4,"YEAR":2018,"REP_DATE":"Sun, 04 Feb 2018 05:00:00 GMT","OCC_DATE":"Sun, 04 Feb 2018 05:00:00 GMT","WEEKDAY":"Monday","OFF_CATEG":"Murder 1st Dgree","SECTOR":"17","DIVISION":"West","NB_NAME_EN":"Merivale Gardens - Grenfell Glen - Pineglen - Country Place","WARD":"Ward 9 - Knoxdale-Merivale","COUNCILLOR":"Sean Devine"}},{"type":"Feature","id":5,"geometry":{"type":"Point","coordinates":[-75.4923422137596,45.4920554051578,0]},"properties":{"OBJECTID":5,"YEAR":2018,"REP_DATE":"Sat, 10 Feb 2018 05:00:00 GMT","OCC_DATE":"Thu, 08 Feb 2018 05:00:00 GMT","WEEKDAY":"Friday","OFF_CATEG":"Murder 1st Dgree","SECTOR":"31","DIVISION":"East","NB_NAME_EN":"Orléans Chatelaine Village","WARD":"Ward 1 - Orléans East-Cumberland","COUNCILLOR":"Matthew Luloff"}},{"type":"Feature","id":6,"geometry":{"type":"Point","coordinates":[-75.7278607365171,45.3625457223833,0]},"properties":{"OBJECTID":6,"YEAR":2018,"REP_DATE":"Sun, 11 Feb 2018 05:00:00 GMT","OCC_DATE":"Mon, 05 Feb 2018 05:00:00 GMT","WEEKDAY":"Tuesday","OFF_CATEG":"Murder 1st Dgree","SECTOR":"17","DIVISION":"West","NB_NAME_EN":"Cityview - Skyline - Fisher Heights","WARD":"Ward 9 - Knoxdale-Merivale","COUNCILLOR":"Sean Devine"}},{"type":"Feature","id":7,"geometry":{"type":"Point","coordinates":[-75.6799873842758,45.3838684865803,0]},"properties":{"OBJECTID":7,"YEAR":2018,"REP_DATE":"Sun, 04 Mar 2018 05:00:00 GMT","OCC_DATE":"Sun, 04 Mar 2018 05:00:00 GMT","WEEKDAY":"Monday","OFF_CATEG":"Murder 2nd Dgree","SECTOR":"34","DIVISION":"East","NB_NAME_EN":"Billings Bridge - Alta Vista","WARD":"Ward 17 - Capital","COUNCILLOR":"Shawn Menard"}},{"type":"Feature","id":8,"geometry":{"type":"Point","coordinates":[-75.7732253644578,45.3447468905445,0]},"properties":{"OBJECTID":8,"YEAR":2018,"REP_DATE":"Wed, 28 Mar 2018 05:00:00 GMT","OCC_DATE":"Wed, 28 Mar 2018 05:00:00 GMT","WEEKDAY":"Thursday","OFF_CATEG":"Murder 2nd Dgree","SECTOR":"15","DIVISION":"West","NB_NAME_EN":"Centrepointe","WARD":"Ward 8 - College","COUNCILLOR":"Laine Johnson"}},{"type":"Feature","id":9,"geometry":{"type":"Point","coordinates":[-75.5750061177179,45.4256425613213,0]},"properties":{"OBJECTID":9,"YEAR":2018,"REP_DATE":"Wed, 11 Apr 2018 05:00:00 GMT","OCC_DATE":"Wed, 11 Apr 2018 05:00:00 GMT","WEEKDAY":"Thursday","OFF_CATEG":"Murder 1st Dgree","SECTOR":"31","DIVISION":"East","NB_NAME_EN":"Greenbelt - Mer Bleue","WARD":"Ward 19 - Orléans South-Navan","COUNCILLOR":"Catherine Kitts"}},{"type":"Feature","id":10,"geometry":{"type":"Point","coordinates":[-75.6186633037482,45.3984477545261,0]},"properties":{"OBJECTID":10,"YEAR":2018,"REP_DATE":"Sat, 05 May 2018 05:00:00 GMT","OCC_DATE":"Sat, 05 May 2018 05:00:00 GMT","WEEKDAY":"Sunday","OFF_CATEG":"Murder 1st Dgree","SECTOR":"33","DIVISION":"East","NB_NAME_EN":"Hawthorne Meadows - Sheffield Glen","WARD":"Ward 18 - Alta Vista","COUNCILLOR":"Marty Carr"}},{"type":"Feature","id":11,"geometry":{"type":"Point","coordinates":[-75.6930869267788,45.4210398320011,0]},"properties":{"OBJECTID":11,"YEAR":2018,"REP_DATE":"Thu, 24 May 2018 05:00:00 GMT","OCC_DATE":"Thu, 24 May 2018 05:00:00 GMT","WEEKDAY":"Friday","OFF_CATEG":"Murder 1st Dgree","SECTOR":"23","DIVISION":"Central","NB_NAME_EN":"Centretown","WARD":"Ward 14 - Somerset","COUNCILLOR":"Ariel Troster"}},{"type":"Feature","id":12,"geometry":{"type":"Point","coordinates":[-75.6413173884099,45.3589852585676,0]},"properties":{"OBJECTID":12,"YEAR":2018,"REP_DATE":"Sun, 27 May 2018 05:00:00 GMT","OCC_DATE":"Sun, 27 May 2018 05:00:00 GMT","WEEKDAY":"Monday","OFF_CATEG":"Murder 1st Dgree","SECTOR":"35","DIVISION":"East","NB_NAME_EN":"Greenboro East","WARD":"Ward 10 - Gloucester-Southgate","COUNCILLOR":"Jessica Bradley"}},{"type":"Feature","id":13,"geometry":{"type":"Point","coordinates":[-75.6666470265891,45.3690355073457,0]},"properties":{"OBJECTID":13,"YEAR":2018,"REP_DATE":"Sat, 15 Sep 2018 05:00:00 GMT","OCC_DATE":"Sat, 15 Sep 2018 05:00:00 GMT","WEEKDAY":"Sunday","OFF_CATEG":"Murder 1st Dgree","SECTOR":"35","DIVISION":"East","NB_NAME_EN":"Hunt Club Woods - Quintarra - Revelstoke","WARD":"Ward 16 - River","COUNCILLOR":"Riley Brockington"}},{"type":"Feature","id":14,"geometry":{"type":"Point","coordinates":[-75.7291961662953,45.4063602417507,0]},"properties":{"OBJECTID":14,"YEAR":2018,"REP_DATE":"Mon, 29 Oct 2018 05:00:00 GMT","OCC_DATE":"Mon, 29 Oct 2018 05:00:00 GMT","WEEKDAY":"Tuesday","OFF_CATEG":"Murder 1st Dgree","SECTOR":"21","DIVISION":"Central","NB_NAME_EN":"Hintonburg - Mechanicsville","WARD":"Ward 15 - Kitchissippi","COUNCILLOR":"Jeff Leiper"}},{"type":"Feature","id":15,"geometry":{"type":"Point","coordinates":[-75.6568877545201,45.3603878949723,0]},"properties":{"OBJECTID":15,"YEAR":2018,"REP_DATE":"Fri, 23 Nov 2018 05:00:00 GMT","OCC_DATE":"Fri, 23 Nov 2018 05:00:00 GMT","WEEKDAY":"Saturday","OFF_CATEG":"Murder 1st Dgree","SECTOR":"35","DIVISION":"East","NB_NAME_EN":"South Keys - Heron Gate - Greenboro West","WARD":"Ward 10 - Gloucester-Southgate","COUNCILLOR":"Jessica Bradley"}},{"type":"Feature","id":16,"geometry":{"type":"Point","coordinates":[-75.8011125070345,45.3547475812034,0]},"properties":{"OBJECTID":16,"YEAR":2019,"REP_DATE":"Sun, 13 Jan 2019 05:00:00 GMT","OCC_DATE":"Thu, 10 Jan 2019 05:00:00 GMT","WEEKDAY":"Friday","OFF_CATEG":"Murder 2nd Dgree","SECTOR":"14","DIVISION":"West","NB_NAME_EN":"Whitehaven - Queensway Terrace North","WARD":"Ward 7 - Bay","COUNCILLOR":"Theresa Kavanagh"}},{"type":"Feature","id":17,"geometry":{"type":"Point","coordinates":[-75.6845757074158,45.4326506218561,0]},"properties":{"OBJECTID":17,"YEAR":2019,"REP_DATE":"Fri, 08 Feb 2019 05:00:00 GMT","OCC_DATE":"Fri, 08 Feb 2019 05:00:00 GMT","WEEKDAY":"Saturday","OFF_CATEG":"Murder 2nd Dgree","SECTOR":"24","DIVISION":"Central","NB_NAME_EN":"Lowertown","WARD":"Ward 12 - Rideau-Vanier","COUNCILLOR":"Stéphanie Plante"}},{"type":"Feature","id":18,"geometry":{"type":"Point","coordinates":[-75.668151099267,45.4431865451003,0]},"properties":{"OBJECTID":18,"YEAR":2019,"REP_DATE":"Wed, 20 Feb 2019 05:00:00 GMT","OCC_DATE":"Wed, 20 Feb 2019 05:00:00 GMT","WEEKDAY":"Thursday","OFF_CATEG":"Murder 2nd Dgree","SECTOR":"25","DIVISION":"Central","NB_NAME_EN":"Vanier North","WARD":"Ward 12 - Rideau-Vanier","COUNCILLOR":"Stéphanie Plante"}},{"type":"Feature","id":19,"geometry":{"type":"Point","coordinates":[-75.6635477979953,45.4415511665747,0]},"properties":{"OBJECTID":19,"YEAR":2019,"REP_DATE":"Sat, 06 Apr 2019 05:00:00 GMT","OCC_DATE":"Sat, 06 Apr 2019 05:00:00 GMT","WEEKDAY":"Sunday","OFF_CATEG":"Murder 2nd Dgree","SECTOR":"25","DIVISION":"Central","NB_NAME_EN":"Vanier North","WARD":"Ward 12 - Rideau-Vanier","COUNCILLOR":"Stéphanie Plante"}},{"type":"Feature","id":20,"geometry":{"type":"Point","coordinates":[-75.6940406715646,45.4275766756764,0]},"properties":{"OBJECTID":20,"YEAR":2019,"REP_DATE":"Thu, 18 Apr 2019 05:00:00 GMT","OCC_DATE":"Thu, 18 Apr 2019 05:00:00 GMT","WEEKDAY":"Friday","OFF_CATEG":"Murder 2nd Dgree","SECTOR":"24","DIVISION":"Central","NB_NAME_EN":"Byward Market","WARD":"Ward 12 - Rideau-Vanier","COUNCILLOR":"Stéphanie Plante"}},{"type":"Feature","id":21,"geometry":{"type":"Point","coordinates":[-75.6566375278351,45.4298324075712,0]},"properties":{"OBJECTID":21,"YEAR":2019,"REP_DATE":"Tue, 14 May 2019 05:00:00 GMT","OCC_DATE":"Mon, 13 May 2019 05:00:00 GMT","WEEKDAY":"Tuesday","OFF_CATEG":"Murder 1st Dgree","SECTOR":"25","DIVISION":"Central","NB_NAME_EN":"Overbrook - McArthur","WARD":"Ward 13 - Rideau-Rockcliffe","COUNCILLOR":"Rawlson King"}},{"type":"Feature","id":22,"geometry":{"type":"Point","coordinates":[-75.6484073380041,45.3730583626664,0]},"properties":{"OBJECTID":22,"YEAR":2019,"REP_DATE":"Mon, 27 May 2019 05:00:00 GMT","OCC_DATE":"Mon, 27 May 2019 05:00:00 GMT","WEEKDAY":"Tuesday","OFF_CATEG":"Murder 2nd Dgree","SECTOR":"34","DIVISION":"East","NB_NAME_EN":"Ledbury - Heron Gate - Ridgemont - Elmwood","WARD":"Ward 10 - Gloucester-Southgate","COUNCILLOR":"Jessica Bradley"}},{"type":"Feature","id":23,"geometry":{"type":"Point","coordinates":[-75.6932152843776,45.4281766641234,0]},"properties":{"OBJECTID":23,"YEAR":2019,"REP_DATE":"Fri, 07 Jun 2019 05:00:00 GMT","OCC_DATE":"Fri, 07 Jun 2019 05:00:00 GMT","WEEKDAY":"Saturday","OFF_CATEG":"Murder 2nd Dgree","SECTOR":"24","DIVISION":"Central","NB_NAME_EN":"Byward Market","WARD":"Ward 12 - Rideau-Vanier","COUNCILLOR":"Stéphanie Plante"}},{"type":"Feature","id":24,"geometry":{"type":"Point","coordinates":[-75.6903180717297,45.4279132015729,0]},"properties":{"OBJECTID":24,"YEAR":2019,"REP_DATE":"Mon, 01 Jul 2019 05:00:00 GMT","OCC_DATE":"Mon, 01 Jul 2019 05:00:00 GMT","WEEKDAY":"Tuesday","OFF_CATEG":"Murder 2nd Dgree","SECTOR":"24","DIVISION":"Central","NB_NAME_EN":"Byward Market","WARD":"Ward 12 - Rideau-Vanier","COUNCILLOR":"Stéphanie Plante"}},{"type":"Feature","id":25,"geometry":{"type":"Point","coordinates":[-75.6573123784664,45.424200939371,0]},"properties":{"OBJECTID":25,"YEAR":2019,"REP_DATE":"Sun, 08 Sep 2019 05:00:00 GMT","OCC_DATE":"Sun, 08 Sep 2019 05:00:00 GMT","WEEKDAY":"Monday","OFF_CATEG":"Murder 2nd Dgree","SECTOR":"25","DIVISION":"Central","NB_NAME_EN":"Overbrook - McArthur","WARD":"Ward 13 - Rideau-Rockcliffe","COUNCILLOR":"Rawlson King"}},{"type":"Feature","id":26,"geometry":{"type":"Point","coordinates":[-75.6885493087504,45.4318420552889,0]},"properties":{"OBJECTID":26,"YEAR":2019,"REP_DATE":"Thu, 31 Oct 2019 05:00:00 GMT","OCC_DATE":"Thu, 31 Oct 2019 05:00:00 GMT","WEEKDAY":"Friday","OFF_CATEG":"Murder 1st Dgree","SECTOR":"24","DIVISION":"Central","NB_NAME_EN":"Lowertown","WARD":"Ward 12 - Rideau-Vanier","COUNCILLOR":"Stéphanie Plante"}},{"type":"Feature","id":27,"geometry":{"type":"Point","coordinates":[-75.7079719269984,45.3980694742574,0]},"properties":{"OBJECTID":27,"YEAR":2019,"REP_DATE":"Fri, 01 Nov 2019 05:00:00 GMT","OCC_DATE":"Thu, 31 Oct 2019 05:00:00 GMT","WEEKDAY":"Friday","OFF_CATEG":"Murder 2nd Dgree","SECTOR":"22","DIVISION":"Central","NB_NAME_EN":"West Centertown","WARD":"Ward 14 - Somerset","COUNCILLOR":"Ariel Troster"}},{"type":"Feature","id":28,"geometry":{"type":"Point","coordinates":[-75.6168368902772,45.368447159268,0]},"properties":{"OBJECTID":28,"YEAR":2019,"REP_DATE":"Wed, 27 Nov 2019 05:00:00 GMT","OCC_DATE":"Wed, 27 Nov 2019 05:00:00 GMT","WEEKDAY":"Thursday","OFF_CATEG":"Murder 1st Dgree","SECTOR":"33","DIVISION":"East","NB_NAME_EN":"Hunt Club Park","WARD":"Ward 10 - Gloucester-Southgate","COUNCILLOR":"Jessica Bradley"}},{"type":"Feature","id":29,"geometry":{"type":"Point","coordinates":[-75.6974336109608,45.4131813435644,0]},"properties":{"OBJECTID":29,"YEAR":2020,"REP_DATE":"Wed, 08 Jan 2020 05:00:00 GMT","OCC_DATE":"Wed, 08 Jan 2020 05:00:00 GMT","WEEKDAY":"Thursday","OFF_CATEG":"Murder 1st Dgree","SECTOR":"23","DIVISION":"Central","NB_NAME_EN":"Centretown","WARD":"Ward 14 - Somerset","COUNCILLOR":"Ariel Troster"}},{"type":"Feature","id":30,"geometry":{"type":"Point","coordinates":[-75.6282814852663,45.4256925306963,0]},"properties":{"OBJECTID":30,"YEAR":2020,"REP_DATE":"Mon, 03 Feb 2020 05:00:00 GMT","OCC_DATE":"Sun, 02 Feb 2020 05:00:00 GMT","WEEKDAY":"Monday","OFF_CATEG":"Murder 2nd Dgree","SECTOR":"32","DIVISION":"East","NB_NAME_EN":"Cummings","WARD":"Ward 11 - Beacon Hill-Cyrville","COUNCILLOR":"Tim Tierney"}},{"type":"Feature","id":31,"geometry":{"type":"Point","coordinates":[-75.6885493087504,45.4318420552889,0]},"properties":{"OBJECTID":31,"YEAR":2020,"REP_DATE":"Thu, 19 Mar 2020 05:00:00 GMT","OCC_DATE":"Thu, 19 Mar 2020 05:00:00 GMT","WEEKDAY":"Friday","OFF_CATEG":"Murder 2nd Dgree","SECTOR":"24","DIVISION":"Central","NB_NAME_EN":"Lowertown","WARD":"Ward 12 - Rideau-Vanier","COUNCILLOR":"Stéphanie Plante"}},{"type":"Feature","id":32,"geometry":{"type":"Point","coordinates":[-75.7968934730376,45.3536673201654,0]},"properties":{"OBJECTID":32,"YEAR":2020,"REP_DATE":"Mon, 13 Apr 2020 05:00:00 GMT","OCC_DATE":"Fri, 10 Apr 2020 05:00:00 GMT","WEEKDAY":"Saturday","OFF_CATEG":"Murder 1st Dgree","SECTOR":"14","DIVISION":"West","NB_NAME_EN":"Whitehaven - Queensway Terrace North","WARD":"Ward 7 - Bay","COUNCILLOR":"Theresa Kavanagh"}},{"type":"Feature","id":33,"geometry":{"type":"Point","coordinates":[-75.7303616364783,45.3534316831034,0]},"properties":{"OBJECTID":33,"YEAR":2020,"REP_DATE":"Fri, 15 May 2020 05:00:00 GMT","OCC_DATE":"Fri, 15 May 2020 05:00:00 GMT","WEEKDAY":"Saturday","OFF_CATEG":"Manslaughter","SECTOR":"17","DIVISION":"West","NB_NAME_EN":"Cityview - Skyline - Fisher Heights","WARD":"Ward 9 - Knoxdale-Merivale","COUNCILLOR":"Sean Devine"}},{"type":"Feature","id":34,"geometry":{"type":"Point","coordinates":[-75.6315007968687,45.4435614295323,0]},"properties":{"OBJECTID":34,"YEAR":2020,"REP_DATE":"Mon, 27 Jul 2020 05:00:00 GMT","OCC_DATE":"Mon, 27 Jul 2020 05:00:00 GMT","WEEKDAY":"Tuesday","OFF_CATEG":"Murder 1st Dgree","SECTOR":"32","DIVISION":"East","NB_NAME_EN":"Carson Grove - Carson Meadows","WARD":"Ward 13 - Rideau-Rockcliffe","COUNCILLOR":"Rawlson King"}},{"type":"Feature","id":35,"geometry":{"type":"Point","coordinates":[-75.7961689031876,45.3561165041322,0]},"properties":{"OBJECTID":35,"YEAR":2020,"REP_DATE":"Fri, 21 Aug 2020 05:00:00 GMT","OCC_DATE":"Fri, 21 Aug 2020 05:00:00 GMT","WEEKDAY":"Saturday","OFF_CATEG":"Murder 1st Dgree","SECTOR":"14","DIVISION":"West","NB_NAME_EN":"Whitehaven - Queensway Terrace North","WARD":"Ward 7 - Bay","COUNCILLOR":"Theresa Kavanagh"}},{"type":"Feature","id":36,"geometry":{"type":"Point","coordinates":[-75.5750061177179,45.4256425613213,0]},"properties":{"OBJECTID":36,"YEAR":2020,"REP_DATE":"Sun, 18 Oct 2020 05:00:00 GMT","OCC_DATE":"Sat, 17 Oct 2020 05:00:00 GMT","WEEKDAY":"Sunday","OFF_CATEG":"Murder 2nd Dgree","SECTOR":"31","DIVISION":"East","NB_NAME_EN":"Greenbelt - Mer Bleue","WARD":"Ward 19 - Orléans South-Navan","COUNCILLOR":"Catherine Kitts"}},{"type":"Feature","id":37,"geometry":{"type":"Point","coordinates":[-75.7076492375414,45.4094975183157,0]},"properties":{"OBJECTID":37,"YEAR":2020,"REP_DATE":"Wed, 11 Nov 2020 05:00:00 GMT","OCC_DATE":"Wed, 11 Nov 2020 05:00:00 GMT","WEEKDAY":"Thursday","OFF_CATEG":"Murder 2nd Dgree","SECTOR":"22","DIVISION":"Central","NB_NAME_EN":"West Centertown","WARD":"Ward 14 - Somerset","COUNCILLOR":"Ariel Troster"}},{"type":"Feature","id":38,"geometry":{"type":"Point","coordinates":[-75.7134814367797,45.361752155575,0]},"properties":{"OBJECTID":38,"YEAR":2021,"REP_DATE":"Tue, 12 Jan 2021 05:00:00 GMT","OCC_DATE":"Tue, 12 Jan 2021 05:00:00 GMT","WEEKDAY":"Wednesday","OFF_CATEG":"Manslaughter","SECTOR":"17","DIVISION":"West","NB_NAME_EN":"Cityview - Skyline - Fisher Heights","WARD":"Ward 9 - Knoxdale-Merivale","COUNCILLOR":"Sean Devine"}},{"type":"Feature","id":39,"geometry":{"type":"Point","coordinates":[-75.6346308396952,45.3629000084388,0]},"properties":{"OBJECTID":39,"YEAR":2021,"REP_DATE":"Sat, 16 Jan 2021 05:00:00 GMT","OCC_DATE":"Sat, 16 Jan 2021 05:00:00 GMT","WEEKDAY":"Sunday","OFF_CATEG":"Murder 1st Dgree","SECTOR":"35","DIVISION":"East","NB_NAME_EN":"Greenboro East","WARD":"Ward 10 - Gloucester-Southgate","COUNCILLOR":"Jessica Bradley"}},{"type":"Feature","id":40,"geometry":{"type":"Point","coordinates":[-75.5750061177179,45.4256425613213,0]},"properties":{"OBJECTID":40,"YEAR":2021,"REP_DATE":"Wed, 24 Feb 2021 05:00:00 GMT","OCC_DATE":"Wed, 24 Feb 2021 05:00:00 GMT","WEEKDAY":"Thursday","OFF_CATEG":"Murder 1st Dgree","SECTOR":"31","DIVISION":"East","NB_NAME_EN":"Greenbelt - Mer Bleue","WARD":"Ward 19 - Orléans South-Navan","COUNCILLOR":"Catherine Kitts"}},{"type":"Feature","id":41,"geometry":{"type":"Point","coordinates":[-75.8145573858726,45.1732942833036,0]},"properties":{"OBJECTID":41,"YEAR":2021,"REP_DATE":"Sun, 07 Mar 2021 05:00:00 GMT","OCC_DATE":"Sun, 07 Mar 2021 05:00:00 GMT","WEEKDAY":"Monday","OFF_CATEG":"Murder 1st Dgree","SECTOR":"12","DIVISION":"West","NB_NAME_EN":"Richmond","WARD":"Ward 21 - Rideau-Jock","COUNCILLOR":"David Brown"}},{"type":"Feature","id":42,"geometry":{"type":"Point","coordinates":[-75.7075269622522,45.4107117855727,0]},"properties":{"OBJECTID":42,"YEAR":2021,"REP_DATE":"Fri, 23 Apr 2021 05:00:00 GMT","OCC_DATE":"Fri, 23 Apr 2021 05:00:00 GMT","WEEKDAY":"Saturday","OFF_CATEG":"Murder 2nd Dgree","SECTOR":"22","DIVISION":"Central","NB_NAME_EN":"West Centertown","WARD":"Ward 14 - Somerset","COUNCILLOR":"Ariel Troster"}},{"type":"Feature","id":43,"geometry":{"type":"Point","coordinates":[-75.6646444146864,45.4374018200016,0]},"properties":{"OBJECTID":43,"YEAR":2021,"REP_DATE":"Tue, 04 May 2021 05:00:00 GMT","OCC_DATE":"Tue, 04 May 2021 05:00:00 GMT","WEEKDAY":"Wednesday","OFF_CATEG":"Manslaughter","SECTOR":"25","DIVISION":"Central","NB_NAME_EN":"Vanier North","WARD":"Ward 12 - Rideau-Vanier","COUNCILLOR":"Stéphanie Plante"}},{"type":"Feature","id":44,"geometry":{"type":"Point","coordinates":[-75.6188652652802,45.4280321235063,0]},"properties":{"OBJECTID":44,"YEAR":2021,"REP_DATE":"Wed, 26 May 2021 05:00:00 GMT","OCC_DATE":"Wed, 26 May 2021 05:00:00 GMT","WEEKDAY":"Thursday","OFF_CATEG":"Murder 1st Dgree","SECTOR":"32","DIVISION":"East","NB_NAME_EN":"Cummings","WARD":"Ward 11 - Beacon Hill-Cyrville","COUNCILLOR":"Tim Tierney"}},{"type":"Feature","id":45,"geometry":{"type":"Point","coordinates":[-75.6581089040768,45.4086206538406,0]},"properties":{"OBJECTID":45,"YEAR":2021,"REP_DATE":"Fri, 28 May 2021 05:00:00 GMT","OCC_DATE":"Fri, 28 May 2021 05:00:00 GMT","WEEKDAY":"Saturday","OFF_CATEG":"Murder 1st Dgree","SECTOR":"33","DIVISION":"East","NB_NAME_EN":"Elmvale - Eastway - Riverview - Riverview Park West","WARD":"Ward 18 - Alta Vista","COUNCILLOR":"Marty Carr"}},{"type":"Feature","id":46,"geometry":{"type":"Point","coordinates":[-75.6581089040768,45.4086206538406,0]},"properties":{"OBJECTID":46,"YEAR":2021,"REP_DATE":"Fri, 28 May 2021 05:00:00 GMT","OCC_DATE":"Fri, 28 May 2021 05:00:00 GMT","WEEKDAY":"Saturday","OFF_CATEG":"Murder 1st Dgree","SECTOR":"33","DIVISION":"East","NB_NAME_EN":"Elmvale - Eastway - Riverview - Riverview Park West","WARD":"Ward 18 - Alta Vista","COUNCILLOR":"Marty Carr"}},{"type":"Feature","id":47,"geometry":{"type":"Point","coordinates":[-75.607558312462,45.4183894509526,0]},"properties":{"OBJECTID":47,"YEAR":2021,"REP_DATE":"Sun, 30 May 2021 05:00:00 GMT","OCC_DATE":"Sun, 30 May 2021 05:00:00 GMT","WEEKDAY":"Monday","OFF_CATEG":"Murder 1st Dgree","SECTOR":"32","DIVISION":"East","NB_NAME_EN":"Pineview","WARD":"Ward 11 - Beacon Hill-Cyrville","COUNCILLOR":"Tim Tierney"}},{"type":"Feature","id":48,"geometry":{"type":"Point","coordinates":[-75.755132955807,45.3531778029678,0]},"properties":{"OBJECTID":48,"YEAR":2021,"REP_DATE":"Tue, 15 Jun 2021 05:00:00 GMT","OCC_DATE":"Tue, 15 Jun 2021 05:00:00 GMT","WEEKDAY":"Wednesday","OFF_CATEG":"Murder 1st Dgree","SECTOR":"17","DIVISION":"West","NB_NAME_EN":"Crestview - Meadowlands","WARD":"Ward 8 - College","COUNCILLOR":"Laine Johnson"}},{"type":"Feature","id":49,"geometry":{"type":"Point","coordinates":[-75.6817381814825,45.4317131232372,0]},"properties":{"OBJECTID":49,"YEAR":2021,"REP_DATE":"Mon, 05 Jul 2021 05:00:00 GMT","OCC_DATE":"Sun, 04 Jul 2021 05:00:00 GMT","WEEKDAY":"Monday","OFF_CATEG":"Murder 1st Dgree","SECTOR":"24","DIVISION":"Central","NB_NAME_EN":"Lowertown","WARD":"Ward 12 - Rideau-Vanier","COUNCILLOR":"Stéphanie Plante"}},{"type":"Feature","id":50,"geometry":{"type":"Point","coordinates":[-75.7548947017812,45.3286649415886,0]},"properties":{"OBJECTID":50,"YEAR":2021,"REP_DATE":"Thu, 22 Jul 2021 05:00:00 GMT","OCC_DATE":"Thu, 22 Jul 2021 05:00:00 GMT","WEEKDAY":"Friday","OFF_CATEG":"Murder 1st Dgree","SECTOR":"15","DIVISION":"West","NB_NAME_EN":"Woodvale - Craig Henry - Manordale - Estates of Arlington Woods","WARD":"Ward 9 - Knoxdale-Merivale","COUNCILLOR":"Sean Devine"}},{"type":"Feature","id":51,"geometry":{"type":"Point","coordinates":[-75.6845757074158,45.4326506218561,0]},"properties":{"OBJECTID":51,"YEAR":2021,"REP_DATE":"Tue, 10 Aug 2021 05:00:00 GMT","OCC_DATE":"Tue, 10 Aug 2021 05:00:00 GMT","WEEKDAY":"Wednesday","OFF_CATEG":"Murder 1st Dgree","SECTOR":"24","DIVISION":"Central","NB_NAME_EN":"Lowertown","WARD":"Ward 12 - Rideau-Vanier","COUNCILLOR":"Stéphanie Plante"}},{"type":"Feature","id":52,"geometry":{"type":"Point","coordinates":[-75.7891285773059,45.3643005503406,0]},"properties":{"OBJECTID":52,"YEAR":2021,"REP_DATE":"Tue, 26 Oct 2021 05:00:00 GMT","OCC_DATE":"Tue, 26 Oct 2021 05:00:00 GMT","WEEKDAY":"Wednesday","OFF_CATEG":"Murder 1st Dgree","SECTOR":"14","DIVISION":"West","NB_NAME_EN":"Britannia Village","WARD":"Ward 7 - Bay","COUNCILLOR":"Theresa Kavanagh"}},{"type":"Feature","id":53,"geometry":{"type":"Point","coordinates":[-75.756911371368,45.2788155435973,0]},"properties":{"OBJECTID":53,"YEAR":2021,"REP_DATE":"Sun, 14 Nov 2021 05:00:00 GMT","OCC_DATE":"Sun, 14 Nov 2021 05:00:00 GMT","WEEKDAY":"Monday","OFF_CATEG":"Murder 1st Dgree","SECTOR":"16","DIVISION":"West","NB_NAME_EN":"Barrhaven","WARD":"Ward 3 - Barrhaven West","COUNCILLOR":"David Hill"}},{"type":"Feature","id":54,"geometry":{"type":"Point","coordinates":[-75.774656593563,45.3530708712472,0]},"properties":{"OBJECTID":54,"YEAR":2021,"REP_DATE":"Mon, 06 Dec 2021 05:00:00 GMT","OCC_DATE":"Mon, 06 Dec 2021 05:00:00 GMT","WEEKDAY":"Tuesday","OFF_CATEG":"Murder 1st Dgree","SECTOR":"15","DIVISION":"West","NB_NAME_EN":"Iris","WARD":"Ward 8 - College","COUNCILLOR":"Laine Johnson"}},{"type":"Feature","id":55,"geometry":{"type":"Point","coordinates":[-75.6186633037482,45.3984477545261,0]},"properties":{"OBJECTID":55,"YEAR":2022,"REP_DATE":"Mon, 03 Jan 2022 05:00:00 GMT","OCC_DATE":"Mon, 03 Jan 2022 05:00:00 GMT","WEEKDAY":"Tuesday","OFF_CATEG":"Murder 2nd Dgree","SECTOR":"33","DIVISION":"East","NB_NAME_EN":"Hawthorne Meadows - Sheffield Glen","WARD":"Ward 18 - Alta Vista","COUNCILLOR":"Marty Carr"}},{"type":"Feature","id":56,"geometry":{"type":"Point","coordinates":[-75.6635860447591,45.4368441200754,0]},"properties":{"OBJECTID":56,"YEAR":2022,"REP_DATE":"Sat, 22 Jan 2022 05:00:00 GMT","OCC_DATE":"Sat, 22 Jan 2022 05:00:00 GMT","WEEKDAY":"Sunday","OFF_CATEG":"Murder 2nd Dgree","SECTOR":"25","DIVISION":"Central","NB_NAME_EN":"Vanier North","WARD":"Ward 12 - Rideau-Vanier","COUNCILLOR":"Stéphanie Plante"}},{"type":"Feature","id":57,"geometry":{"type":"Point","coordinates":[-75.6334682773797,45.3691314336261,0]},"properties":{"OBJECTID":57,"YEAR":2022,"REP_DATE":"Mon, 21 Feb 2022 05:00:00 GMT","OCC_DATE":"Mon, 21 Feb 2022 05:00:00 GMT","WEEKDAY":"Tuesday","OFF_CATEG":"Murder 1st Dgree","SECTOR":"35","DIVISION":"East","NB_NAME_EN":"Greenboro East","WARD":"Ward 10 - Gloucester-Southgate","COUNCILLOR":"Jessica Bradley"}},{"type":"Feature","id":58,"geometry":{"type":"Point","coordinates":[-75.6484073380041,45.3730583626664,0]},"properties":{"OBJECTID":58,"YEAR":2022,"REP_DATE":"Mon, 28 Mar 2022 05:00:00 GMT","OCC_DATE":"Sat, 26 Mar 2022 05:00:00 GMT","WEEKDAY":"Sunday","OFF_CATEG":"Murder 1st Dgree","SECTOR":"34","DIVISION":"East","NB_NAME_EN":"Ledbury - Heron Gate - Ridgemont - Elmwood","WARD":"Ward 10 - Gloucester-Southgate","COUNCILLOR":"Jessica Bradley"}},{"type":"Feature","id":59,"geometry":{"type":"Point","coordinates":[-75.6344157281589,45.4003293862894,0]},"properties":{"OBJECTID":59,"YEAR":2022,"REP_DATE":"Fri, 15 Apr 2022 05:00:00 GMT","OCC_DATE":"Fri, 15 Apr 2022 05:00:00 GMT","WEEKDAY":"Saturday","OFF_CATEG":"Murder 1st Dgree","SECTOR":"33","DIVISION":"East","NB_NAME_EN":"Elmvale - Eastway - Riverview - Riverview Park West","WARD":"Ward 18 - Alta Vista","COUNCILLOR":"Marty Carr"}},{"type":"Feature","id":60,"geometry":{"type":"Point","coordinates":[-75.664185051467,45.3781001374409,0]},"properties":{"OBJECTID":60,"YEAR":2022,"REP_DATE":"Tue, 28 Jun 2022 05:00:00 GMT","OCC_DATE":"Tue, 28 Jun 2022 05:00:00 GMT","WEEKDAY":"Wednesday","OFF_CATEG":"Murder 1st Dgree","SECTOR":"34","DIVISION":"East","NB_NAME_EN":"Ledbury - Heron Gate - Ridgemont - Elmwood","WARD":"Ward 18 - Alta Vista","COUNCILLOR":"Marty Carr"}},{"type":"Feature","id":61,"geometry":{"type":"Point","coordinates":[-75.664185051467,45.3781001374409,0]},"properties":{"OBJECTID":61,"YEAR":2022,"REP_DATE":"Tue, 28 Jun 2022 05:00:00 GMT","OCC_DATE":"Tue, 28 Jun 2022 05:00:00 GMT","WEEKDAY":"Wednesday","OFF_CATEG":"Murder 1st Dgree","SECTOR":"34","DIVISION":"East","NB_NAME_EN":"Ledbury - Heron Gate - Ridgemont - Elmwood","WARD":"Ward 18 - Alta Vista","COUNCILLOR":"Marty Carr"}},{"type":"Feature","id":62,"geometry":{"type":"Point","coordinates":[-75.657124414779,45.3652595236729,0]},"properties":{"OBJECTID":62,"YEAR":2022,"REP_DATE":"Tue, 05 Jul 2022 05:00:00 GMT","OCC_DATE":"Tue, 05 Jul 2022 05:00:00 GMT","WEEKDAY":"Wednesday","OFF_CATEG":"Murder 1st Dgree","SECTOR":"34","DIVISION":"East","NB_NAME_EN":"Ledbury - Heron Gate - Ridgemont - Elmwood","WARD":"Ward 16 - River","COUNCILLOR":"Riley Brockington"}},{"type":"Feature","id":63,"geometry":{"type":"Point","coordinates":[-75.6861061498943,45.4319866361156,0]},"properties":{"OBJECTID":63,"YEAR":2022,"REP_DATE":"Sat, 16 Jul 2022 05:00:00 GMT","OCC_DATE":"Fri, 15 Jul 2022 05:00:00 GMT","WEEKDAY":"Saturday","OFF_CATEG":"Murder 2nd Dgree","SECTOR":"24","DIVISION":"Central","NB_NAME_EN":"Lowertown","WARD":"Ward 12 - Rideau-Vanier","COUNCILLOR":"Stéphanie Plante"}},{"type":"Feature","id":64,"geometry":{"type":"Point","coordinates":[-75.7570095468168,45.3337630357608,0]},"properties":{"OBJECTID":64,"YEAR":2022,"REP_DATE":"Sun, 11 Sep 2022 05:00:00 GMT","OCC_DATE":"Sun, 11 Sep 2022 05:00:00 GMT","WEEKDAY":"Monday","OFF_CATEG":"Murder 1st Dgree","SECTOR":"15","DIVISION":"West","NB_NAME_EN":"Woodvale - Craig Henry - Manordale - Estates of Arlington Woods","WARD":"Ward 9 - Knoxdale-Merivale","COUNCILLOR":"Sean Devine"}},{"type":"Feature","id":65,"geometry":{"type":"Point","coordinates":[-75.7891285773059,45.3643005503406,0]},"properties":{"OBJECTID":65,"YEAR":2022,"REP_DATE":"Fri, 16 Sep 2022 05:00:00 GMT","OCC_DATE":"Thu, 15 Sep 2022 05:00:00 GMT","WEEKDAY":"Friday","OFF_CATEG":"Manslaughter","SECTOR":"14","DIVISION":"West","NB_NAME_EN":"Britannia Village","WARD":"Ward 7 - Bay","COUNCILLOR":"Theresa Kavanagh"}},{"type":"Feature","id":66,"geometry":{"type":"Point","coordinates":[-75.6402411189341,45.4241086170068,0]},"properties":{"OBJECTID":66,"YEAR":2022,"REP_DATE":"Fri, 16 Sep 2022 05:00:00 GMT","OCC_DATE":"Fri, 16 Sep 2022 05:00:00 GMT","WEEKDAY":"Saturday","OFF_CATEG":"Murder 1st Dgree","SECTOR":"25","DIVISION":"Central","NB_NAME_EN":"Overbrook - McArthur","WARD":"Ward 13 - Rideau-Rockcliffe","COUNCILLOR":"Rawlson King"}},{"type":"Feature","id":67,"geometry":{"type":"Point","coordinates":[-75.6673664222323,45.4365668332926,0]},"properties":{"OBJECTID":67,"YEAR":2022,"REP_DATE":"Wed, 28 Sep 2022 05:00:00 GMT","OCC_DATE":"Wed, 28 Sep 2022 05:00:00 GMT","WEEKDAY":"Thursday","OFF_CATEG":"Murder 1st Dgree","SECTOR":"25","DIVISION":"Central","NB_NAME_EN":"Vanier North","WARD":"Ward 12 - Rideau-Vanier","COUNCILLOR":"Stéphanie Plante"}},{"type":"Feature","id":68,"geometry":{"type":"Point","coordinates":[-75.4990472069213,45.4769508288141,0]},"properties":{"OBJECTID":68,"YEAR":2022,"REP_DATE":"Wed, 05 Oct 2022 05:00:00 GMT","OCC_DATE":"Wed, 05 Oct 2022 05:00:00 GMT","WEEKDAY":"Thursday","OFF_CATEG":"Murder 2nd Dgree","SECTOR":"31","DIVISION":"East","NB_NAME_EN":"Orléans Queenswood Heights","WARD":"Ward 1 - Orléans East-Cumberland","COUNCILLOR":"Matthew Luloff"}},{"type":"Feature","id":69,"geometry":{"type":"Point","coordinates":[-75.4990472069213,45.4769508288141,0]},"properties":{"OBJECTID":69,"YEAR":2022,"REP_DATE":"Wed, 05 Oct 2022 05:00:00 GMT","OCC_DATE":"Wed, 05 Oct 2022 05:00:00 GMT","WEEKDAY":"Thursday","OFF_CATEG":"Murder 2nd Dgree","SECTOR":"31","DIVISION":"East","NB_NAME_EN":"Orléans Queenswood Heights","WARD":"Ward 1 - Orléans East-Cumberland","COUNCILLOR":"Matthew Luloff"}},{"type":"Feature","id":70,"geometry":{"type":"Point","coordinates":[-75.6359208551665,45.4292153029448,0]},"properties":{"OBJECTID":70,"YEAR":2022,"REP_DATE":"Mon, 31 Oct 2022 05:00:00 GMT","OCC_DATE":"Mon, 31 Oct 2022 05:00:00 GMT","WEEKDAY":"Tuesday","OFF_CATEG":"Murder 1st Dgree","SECTOR":"32","DIVISION":"East","NB_NAME_EN":"Cummings","WARD":"Ward 11 - Beacon Hill-Cyrville","COUNCILLOR":"Tim Tierney"}},{"type":"Feature","id":71,"geometry":{"type":"Point","coordinates":[-75.6474800634174,45.348943832907,0]},"properties":{"OBJECTID":71,"YEAR":2023,"REP_DATE":"Tue, 31 Jan 2023 05:00:00 GMT","OCC_DATE":"Tue, 31 Jan 2023 05:00:00 GMT","WEEKDAY":"Wednesday","OFF_CATEG":"Murder 1st Dgree","SECTOR":"35","DIVISION":"East","NB_NAME_EN":"Emerald Woods - Sawmill Creek","WARD":"Ward 10 - Gloucester-Southgate","COUNCILLOR":"Jessica Bradley"}},{"type":"Feature","id":72,"geometry":{"type":"Point","coordinates":[-75.4799951185044,45.4402165210722,0]},"properties":{"OBJECTID":72,"YEAR":2023,"REP_DATE":"Tue, 07 Feb 2023 05:00:00 GMT","OCC_DATE":"Tue, 07 Feb 2023 05:00:00 GMT","WEEKDAY":"Wednesday","OFF_CATEG":"Murder 1st Dgree","SECTOR":"31","DIVISION":"East","NB_NAME_EN":"Orléans Avalon - Notting Gate - Fallingbrook - Gardenway South","WARD":"Ward 19 - Orléans South-Navan","COUNCILLOR":"Catherine Kitts"}},{"type":"Feature","id":73,"geometry":{"type":"Point","coordinates":[-75.6533568333729,45.4092699008231,0]},"properties":{"OBJECTID":73,"YEAR":2023,"REP_DATE":"Tue, 14 Feb 2023 05:00:00 GMT","OCC_DATE":"Tue, 14 Feb 2023 05:00:00 GMT","WEEKDAY":"Wednesday","OFF_CATEG":"Murder 1st Dgree","SECTOR":"33","DIVISION":"East","NB_NAME_EN":"Elmvale - Eastway - Riverview - Riverview Park West","WARD":"Ward 18 - Alta Vista","COUNCILLOR":"Marty Carr"}},{"type":"Feature","id":74,"geometry":{"type":"Point","coordinates":[-75.6873170858696,45.4304295023362,0]},"properties":{"OBJECTID":74,"YEAR":2023,"REP_DATE":"Tue, 21 Feb 2023 05:00:00 GMT","OCC_DATE":"Tue, 21 Feb 2023 05:00:00 GMT","WEEKDAY":"Wednesday","OFF_CATEG":"Murder 1st Dgree","SECTOR":"24","DIVISION":"Central","NB_NAME_EN":"Lowertown","WARD":"Ward 12 - Rideau-Vanier","COUNCILLOR":"Stéphanie Plante"}},{"type":"Feature","id":75,"geometry":{"type":"Point","coordinates":[-75.6471531233661,45.3579671410722,0]},"properties":{"OBJECTID":75,"YEAR":2023,"REP_DATE":"Mon, 24 Apr 2023 05:00:00 GMT","OCC_DATE":"Mon, 24 Apr 2023 05:00:00 GMT","WEEKDAY":"Tuesday","OFF_CATEG":"Murder 2nd Dgree","SECTOR":"35","DIVISION":"East","NB_NAME_EN":"South Keys - Heron Gate - Greenboro West","WARD":"Ward 10 - Gloucester-Southgate","COUNCILLOR":"Jessica Bradley"}},{"type":"Feature","id":76,"geometry":{"type":"Point","coordinates":[-75.6501557648548,45.4057348620641,0]},"properties":{"OBJECTID":76,"YEAR":2023,"REP_DATE":"Sat, 06 May 2023 05:00:00 GMT","OCC_DATE":"Sat, 06 May 2023 05:00:00 GMT","WEEKDAY":"Sunday","OFF_CATEG":"Murder 2nd Dgree","SECTOR":"33","DIVISION":"East","NB_NAME_EN":"Elmvale - Eastway - Riverview - Riverview Park West","WARD":"Ward 18 - Alta Vista","COUNCILLOR":"Marty Carr"}},{"type":"Feature","id":77,"geometry":{"type":"Point","coordinates":[-75.6436378340394,45.3495210950035,0]},"properties":{"OBJECTID":77,"YEAR":2023,"REP_DATE":"Tue, 09 May 2023 05:00:00 GMT","OCC_DATE":"Tue, 09 May 2023 05:00:00 GMT","WEEKDAY":"Wednesday","OFF_CATEG":"Murder 2nd Dgree","SECTOR":"35","DIVISION":"East","NB_NAME_EN":"Emerald Woods - Sawmill Creek","WARD":"Ward 10 - Gloucester-Southgate","COUNCILLOR":"Jessica Bradley"}},{"type":"Feature","id":78,"geometry":{"type":"Point","coordinates":[-75.7435255548812,45.3748258259641,0]},"properties":{"OBJECTID":78,"YEAR":2023,"REP_DATE":"Wed, 28 Jun 2023 05:00:00 GMT","OCC_DATE":"Wed, 28 Jun 2023 05:00:00 GMT","WEEKDAY":"Thursday","OFF_CATEG":"Murder 1st Dgree","SECTOR":"21","DIVISION":"Central","NB_NAME_EN":"Carlington","WARD":"Ward 16 - River","COUNCILLOR":"Riley Brockington"}},{"type":"Feature","id":79,"geometry":{"type":"Point","coordinates":[-75.7388882841589,45.3701426651433,0]},"properties":{"OBJECTID":79,"YEAR":2023,"REP_DATE":"Thu, 29 Jun 2023 05:00:00 GMT","OCC_DATE":"Thu, 29 Jun 2023 05:00:00 GMT","WEEKDAY":"Friday","OFF_CATEG":"Murder 1st Dgree","SECTOR":"21","DIVISION":"Central","NB_NAME_EN":"Civic Hospital-Central Park","WARD":"Ward 16 - River","COUNCILLOR":"Riley Brockington"}},{"type":"Feature","id":80,"geometry":{"type":"Point","coordinates":[-75.7090155236869,45.4069435872023,0]},"properties":{"OBJECTID":80,"YEAR":2023,"REP_DATE":"Wed, 19 Jul 2023 05:00:00 GMT","OCC_DATE":"Wed, 19 Jul 2023 05:00:00 GMT","WEEKDAY":"Thursday","OFF_CATEG":"Manslaughter","SECTOR":"22","DIVISION":"Central","NB_NAME_EN":"West Centertown","WARD":"Ward 14 - Somerset","COUNCILLOR":"Ariel Troster"}},{"type":"Feature","id":81,"geometry":{"type":"Point","coordinates":[-75.5017729091541,45.3513986126747,0]},"properties":{"OBJECTID":81,"YEAR":2023,"REP_DATE":"Sat, 19 Aug 2023 05:00:00 GMT","OCC_DATE":"Sat, 19 Aug 2023 05:00:00 GMT","WEEKDAY":"Sunday","OFF_CATEG":"Murder 1st Dgree","SECTOR":"37","DIVISION":"East","NB_NAME_EN":"Russell - Edwards","WARD":"Ward 20 - Osgoode","COUNCILLOR":"Isabelle Skalski"}},{"type":"Feature","id":82,"geometry":{"type":"Point","coordinates":[-75.6676429535713,45.342873553417,0]},"properties":{"OBJECTID":82,"YEAR":2023,"REP_DATE":"Sat, 02 Sep 2023 05:00:00 GMT","OCC_DATE":"Sat, 02 Sep 2023 05:00:00 GMT","WEEKDAY":"Sunday","OFF_CATEG":"Murder 1st Dgree","SECTOR":"35","DIVISION":"East","NB_NAME_EN":"Hunt Club - Ottawa Airport","WARD":"Ward 10 - Gloucester-Southgate","COUNCILLOR":"Jessica Bradley"}},{"type":"Feature","id":83,"geometry":{"type":"Point","coordinates":[-75.6676429535713,45.342873553417,0]},"properties":{"OBJECTID":83,"YEAR":2023,"REP_DATE":"Sat, 02 Sep 2023 05:00:00 GMT","OCC_DATE":"Sat, 02 Sep 2023 05:00:00 GMT","WEEKDAY":"Sunday","OFF_CATEG":"Murder 1st Dgree","SECTOR":"35","DIVISION":"East","NB_NAME_EN":"Hunt Club - Ottawa Airport","WARD":"Ward 10 - Gloucester-Southgate","COUNCILLOR":"Jessica Bradley"}},{"type":"Feature","id":84,"geometry":{"type":"Point","coordinates":[-75.4905599538939,45.4655728930132,0]},"properties":{"OBJECTID":84,"YEAR":2023,"REP_DATE":"Wed, 11 Oct 2023 05:00:00 GMT","OCC_DATE":"Wed, 11 Oct 2023 05:00:00 GMT","WEEKDAY":"Thursday","OFF_CATEG":"Murder 1st Dgree","SECTOR":"31","DIVISION":"East","NB_NAME_EN":"Orléans Avalon - Notting Gate - Fallingbrook - Gardenway South","WARD":"Ward 1 - Orléans East-Cumberland","COUNCILLOR":"Matthew Luloff"}},{"type":"Feature","id":85,"geometry":{"type":"Point","coordinates":[-75.7705486595627,45.3460993954997,0]},"properties":{"OBJECTID":85,"YEAR":2023,"REP_DATE":"Thu, 23 Nov 2023 05:00:00 GMT","OCC_DATE":"Thu, 23 Nov 2023 05:00:00 GMT","WEEKDAY":"Friday","OFF_CATEG":"Murder 2nd Dgree","SECTOR":"15","DIVISION":"West","NB_NAME_EN":"Centrepointe","WARD":"Ward 8 - College","COUNCILLOR":"Laine Johnson"}},{"type":"Feature","id":86,"geometry":{"type":"Point","coordinates":[-75.6877648735289,45.431287557778,0]},"properties":{"OBJECTID":86,"YEAR":2023,"REP_DATE":"Thu, 30 Nov 2023 05:00:00 GMT","OCC_DATE":"Thu, 30 Nov 2023 05:00:00 GMT","WEEKDAY":"Friday","OFF_CATEG":"Manslaughter","SECTOR":"24","DIVISION":"Central","NB_NAME_EN":"Lowertown","WARD":"Ward 12 - Rideau-Vanier","COUNCILLOR":"Stéphanie Plante"}},{"type":"Feature","id":87,"geometry":{"type":"Point","coordinates":[-75.7111831852279,45.3979136852018,0]},"properties":{"OBJECTID":87,"YEAR":2024,"REP_DATE":"Mon, 29 Jan 2024 05:00:00 GMT","OCC_DATE":"Mon, 29 Jan 2024 05:00:00 GMT","WEEKDAY":"Tuesday","OFF_CATEG":"Murder 1st Dgree","SECTOR":"22","DIVISION":"Central","NB_NAME_EN":"West Centertown","WARD":"Ward 15 - Kitchissippi","COUNCILLOR":"Jeff Leiper"}},{"type":"Feature","id":88,"geometry":{"type":"Point","coordinates":[-75.7325717374592,45.2811850207963,0]},"properties":{"OBJECTID":88,"YEAR":2024,"REP_DATE":"Wed, 06 Mar 2024 05:00:00 GMT","OCC_DATE":"Wed, 06 Mar 2024 05:00:00 GMT","WEEKDAY":"Thursday","OFF_CATEG":"Murder 1st Dgree","SECTOR":"16","DIVISION":"West","NB_NAME_EN":"New Barrhaven - New Development - Stonebridge","WARD":"Ward 24 - Barrhaven East","COUNCILLOR":"Wilson Lo"}},{"type":"Feature","id":89,"geometry":{"type":"Point","coordinates":[-75.7325717374592,45.2811850207963,0]},"properties":{"OBJECTID":89,"YEAR":2024,"REP_DATE":"Wed, 06 Mar 2024 05:00:00 GMT","OCC_DATE":"Wed, 06 Mar 2024 05:00:00 GMT","WEEKDAY":"Thursday","OFF_CATEG":"Murder 1st Dgree","SECTOR":"16","DIVISION":"West","NB_NAME_EN":"New Barrhaven - New Development - Stonebridge","WARD":"Ward 24 - Barrhaven East","COUNCILLOR":"Wilson Lo"}},{"type":"Feature","id":90,"geometry":{"type":"Point","coordinates":[-75.7325717374592,45.2811850207963,0]},"properties":{"OBJECTID":90,"YEAR":2024,"REP_DATE":"Wed, 06 Mar 2024 05:00:00 GMT","OCC_DATE":"Wed, 06 Mar 2024 05:00:00 GMT","WEEKDAY":"Thursday","OFF_CATEG":"Murder 1st Dgree","SECTOR":"16","DIVISION":"West","NB_NAME_EN":"New Barrhaven - New Development - Stonebridge","WARD":"Ward 24 - Barrhaven East","COUNCILLOR":"Wilson Lo"}},{"type":"Feature","id":91,"geometry":{"type":"Point","coordinates":[-75.7325717374592,45.2811850207963,0]},"properties":{"OBJECTID":91,"YEAR":2024,"REP_DATE":"Wed, 06 Mar 2024 05:00:00 GMT","OCC_DATE":"Wed, 06 Mar 2024 05:00:00 GMT","WEEKDAY":"Thursday","OFF_CATEG":"Murder 1st Dgree","SECTOR":"16","DIVISION":"West","NB_NAME_EN":"New Barrhaven - New Development - Stonebridge","WARD":"Ward 24 - Barrhaven East","COUNCILLOR":"Wilson Lo"}},{"type":"Feature","id":92,"geometry":{"type":"Point","coordinates":[-75.7325717374592,45.2811850207963,0]},"properties":{"OBJECTID":92,"YEAR":2024,"REP_DATE":"Wed, 06 Mar 2024 05:00:00 GMT","OCC_DATE":"Wed, 06 Mar 2024 05:00:00 GMT","WEEKDAY":"Thursday","OFF_CATEG":"Murder 1st Dgree","SECTOR":"16","DIVISION":"West","NB_NAME_EN":"New Barrhaven - New Development - Stonebridge","WARD":"Ward 24 - Barrhaven East","COUNCILLOR":"Wilson Lo"}},{"type":"Feature","id":93,"geometry":{"type":"Point","coordinates":[-75.7325717374592,45.2811850207963,0]},"properties":{"OBJECTID":93,"YEAR":2024,"REP_DATE":"Wed, 06 Mar 2024 05:00:00 GMT","OCC_DATE":"Wed, 06 Mar 2024 05:00:00 GMT","WEEKDAY":"Thursday","OFF_CATEG":"Murder 1st Dgree","SECTOR":"16","DIVISION":"West","NB_NAME_EN":"New Barrhaven - New Development - Stonebridge","WARD":"Ward 24 - Barrhaven East","COUNCILLOR":"Wilson Lo"}},{"type":"Feature","id":94,"geometry":{"type":"Point","coordinates":[-75.7041416287026,45.4087087990456,0]},"properties":{"OBJECTID":94,"YEAR":2024,"REP_DATE":"Fri, 12 Apr 2024 05:00:00 GMT","OCC_DATE":"Fri, 12 Apr 2024 05:00:00 GMT","WEEKDAY":"Saturday","OFF_CATEG":"Murder 1st Dgree","SECTOR":"23","DIVISION":"Central","NB_NAME_EN":"Centretown","WARD":"Ward 14 - Somerset","COUNCILLOR":"Ariel Troster"}},{"type":"Feature","id":95,"geometry":{"type":"Point","coordinates":[-75.661777849183,45.4498591201809,0]},"properties":{"OBJECTID":95,"YEAR":2024,"REP_DATE":"Fri, 19 Apr 2024 05:00:00 GMT","OCC_DATE":"Fri, 19 Apr 2024 05:00:00 GMT","WEEKDAY":"Saturday","OFF_CATEG":"Murder 2nd Dgree","SECTOR":"25","DIVISION":"Central","NB_NAME_EN":"Rockcliffe - Manor Park","WARD":"Ward 13 - Rideau-Rockcliffe","COUNCILLOR":"Rawlson King"}},{"type":"Feature","id":96,"geometry":{"type":"Point","coordinates":[-75.6358209491548,45.4287030840793,0]},"properties":{"OBJECTID":96,"YEAR":2024,"REP_DATE":"Thu, 02 May 2024 05:00:00 GMT","OCC_DATE":"Thu, 02 May 2024 05:00:00 GMT","WEEKDAY":"Friday","OFF_CATEG":"Murder 1st Dgree","SECTOR":"32","DIVISION":"East","NB_NAME_EN":"Cummings","WARD":"Ward 11 - Beacon Hill-Cyrville","COUNCILLOR":"Tim Tierney"}},{"type":"Feature","id":97,"geometry":{"type":"Point","coordinates":[-75.7652572599734,45.3456697627443,0]},"properties":{"OBJECTID":97,"YEAR":2024,"REP_DATE":"Thu, 02 May 2024 05:00:00 GMT","OCC_DATE":"Thu, 02 May 2024 05:00:00 GMT","WEEKDAY":"Friday","OFF_CATEG":"Murder 1st Dgree","SECTOR":"15","DIVISION":"West","NB_NAME_EN":"Centrepointe","WARD":"Ward 8 - College","COUNCILLOR":"Laine Johnson"}},{"type":"Feature","id":98,"geometry":{"type":"Point","coordinates":[-75.7638574965201,45.3531425341376,0]},"properties":{"OBJECTID":98,"YEAR":2024,"REP_DATE":"Wed, 12 Jun 2024 05:00:00 GMT","OCC_DATE":"Mon, 11 Dec 2023 05:00:00 GMT","WEEKDAY":"Tuesday","OFF_CATEG":"Murder 2nd Dgree","SECTOR":"15","DIVISION":"West","NB_NAME_EN":"Iris","WARD":"Ward 8 - College","COUNCILLOR":"Laine Johnson"}},{"type":"Feature","id":99,"geometry":{"type":"Point","coordinates":[-75.9053033360907,45.3123939582095,0]},"properties":{"OBJECTID":99,"YEAR":2024,"REP_DATE":"Mon, 17 Jun 2024 05:00:00 GMT","OCC_DATE":"Mon, 17 Jun 2024 05:00:00 GMT","WEEKDAY":"Tuesday","OFF_CATEG":"Manslaughter","SECTOR":"13","DIVISION":"West","NB_NAME_EN":"Katimavik - Hazeldean","WARD":"Ward 4 - Kanata North","COUNCILLOR":"Cathy Curry"}},{"type":"Feature","id":100,"geometry":{"type":"Point","coordinates":[-75.6288091726652,45.4021832925928,0]},"properties":{"OBJECTID":100,"YEAR":2024,"REP_DATE":"Fri, 28 Jun 2024 05:00:00 GMT","OCC_DATE":"Fri, 28 Jun 2024 05:00:00 GMT","WEEKDAY":"Saturday","OFF_CATEG":"Murder 2nd Dgree","SECTOR":"33","DIVISION":"East","NB_NAME_EN":"Elmvale - Eastway - Riverview - Riverview Park West","WARD":"Ward 18 - Alta Vista","COUNCILLOR":"Marty Carr"}},{"type":"Feature","id":101,"geometry":{"type":"Point","coordinates":[-75.7403130022288,45.3864675023765,0]},"properties":{"OBJECTID":101,"YEAR":2024,"REP_DATE":"Fri, 05 Jul 2024 05:00:00 GMT","OCC_DATE":"Fri, 05 Jul 2024 05:00:00 GMT","WEEKDAY":"Saturday","OFF_CATEG":"Murder 1st Dgree","SECTOR":"21","DIVISION":"Central","NB_NAME_EN":"Westboro","WARD":"Ward 15 - Kitchissippi","COUNCILLOR":"Jeff Leiper"}},{"type":"Feature","id":102,"geometry":{"type":"Point","coordinates":[-75.4948142291077,45.4502018402552,0]},"properties":{"OBJECTID":102,"YEAR":2024,"REP_DATE":"Tue, 16 Jul 2024 05:00:00 GMT","OCC_DATE":"Tue, 16 Jul 2024 05:00:00 GMT","WEEKDAY":"Wednesday","OFF_CATEG":"Murder 1st Dgree","SECTOR":"31","DIVISION":"East","NB_NAME_EN":"Orléans Avalon - Notting Gate - Fallingbrook - Gardenway South","WARD":"Ward 19 - Orléans South-Navan","COUNCILLOR":"Catherine Kitts"}},{"type":"Feature","id":103,"geometry":{"type":"Point","coordinates":[-75.5057546548648,45.4868448741372,0]},"properties":{"OBJECTID":103,"YEAR":2024,"REP_DATE":"Wed, 07 Aug 2024 05:00:00 GMT","OCC_DATE":"Wed, 07 Aug 2024 05:00:00 GMT","WEEKDAY":"Thursday","OFF_CATEG":"Murder 2nd Dgree","SECTOR":"31","DIVISION":"East","NB_NAME_EN":"Orléans Chatelaine Village","WARD":"Ward 1 - Orléans East-Cumberland","COUNCILLOR":"Matthew Luloff"}},{"type":"Feature","id":104,"geometry":{"type":"Point","coordinates":[-76.003748065501,45.2501977467946,0]},"properties":{"OBJECTID":104,"YEAR":2024,"REP_DATE":"Sun, 25 Aug 2024 05:00:00 GMT","OCC_DATE":"Sun, 25 Aug 2024 05:00:00 GMT","WEEKDAY":"Monday","OFF_CATEG":"Murder 2nd Dgree","SECTOR":"11","DIVISION":"West","NB_NAME_EN":"Corkery","WARD":"Ward 5 - West Carleton-March","COUNCILLOR":"Clarke Kelly"}},{"type":"Feature","id":105,"geometry":{"type":"Point","coordinates":[-75.6881582814286,45.4288067253309,0]},"properties":{"OBJECTID":105,"YEAR":2024,"REP_DATE":"Thu, 12 Sep 2024 05:00:00 GMT","OCC_DATE":"Thu, 12 Sep 2024 05:00:00 GMT","WEEKDAY":"Friday","OFF_CATEG":"Murder 2nd Dgree","SECTOR":"24","DIVISION":"Central","NB_NAME_EN":"Byward Market","WARD":"Ward 12 - Rideau-Vanier","COUNCILLOR":"Stéphanie Plante"}},{"type":"Feature","id":106,"geometry":{"type":"Point","coordinates":[-75.7060405643493,45.4148945427719,0]},"properties":{"OBJECTID":106,"YEAR":2024,"REP_DATE":"Sun, 15 Sep 2024 05:00:00 GMT","OCC_DATE":"Sun, 15 Sep 2024 05:00:00 GMT","WEEKDAY":"Monday","OFF_CATEG":"Murder 1st Dgree","SECTOR":"23","DIVISION":"Central","NB_NAME_EN":"Centretown","WARD":"Ward 14 - Somerset","COUNCILLOR":"Ariel Troster"}},{"type":"Feature","id":107,"geometry":{"type":"Point","coordinates":[-75.6432421456035,45.3785747308263,0]},"properties":{"OBJECTID":107,"YEAR":2024,"REP_DATE":"Thu, 19 Sep 2024 05:00:00 GMT","OCC_DATE":"Thu, 19 Sep 2024 05:00:00 GMT","WEEKDAY":"Friday","OFF_CATEG":"Murder 1st Dgree","SECTOR":"34","DIVISION":"East","NB_NAME_EN":"Ledbury - Heron Gate - Ridgemont - Elmwood","WARD":"Ward 18 - Alta Vista","COUNCILLOR":"Marty Carr"}},{"type":"Feature","id":108,"geometry":{"type":"Point","coordinates":[-75.4943624814375,45.2761486712715,0]},"properties":{"OBJECTID":108,"YEAR":2024,"REP_DATE":"Mon, 23 Sep 2024 05:00:00 GMT","OCC_DATE":"Mon, 23 Sep 2024 05:00:00 GMT","WEEKDAY":"Tuesday","OFF_CATEG":"Murder 2nd Dgree","SECTOR":"36","DIVISION":"East","NB_NAME_EN":"Metcalfe","WARD":"Ward 20 - Osgoode","COUNCILLOR":"Isabelle Skalski"}},{"type":"Feature","id":109,"geometry":{"type":"Point","coordinates":[-75.744434507238,45.3511221973771,0]},"properties":{"OBJECTID":109,"YEAR":2024,"REP_DATE":"Tue, 08 Oct 2024 05:00:00 GMT","OCC_DATE":"Tue, 08 Oct 2024 05:00:00 GMT","WEEKDAY":"Wednesday","OFF_CATEG":"Murder 1st Dgree","SECTOR":"17","DIVISION":"West","NB_NAME_EN":"Crestview - Meadowlands","WARD":"Ward 8 - College","COUNCILLOR":"Laine Johnson"}},{"type":"Feature","id":110,"geometry":{"type":"Point","coordinates":[-75.670823718286,45.3479188595193,0]},"properties":{"OBJECTID":110,"YEAR":2024,"REP_DATE":"Thu, 24 Oct 2024 05:00:00 GMT","OCC_DATE":"Thu, 24 Oct 2024 05:00:00 GMT","WEEKDAY":"Friday","OFF_CATEG":"Murder 1st Dgree","SECTOR":"35","DIVISION":"East","NB_NAME_EN":"Hunt Club East - Western Community","WARD":"Ward 16 - River","COUNCILLOR":"Riley Brockington"}},{"type":"Feature","id":111,"geometry":{"type":"Point","coordinates":[-75.6666496878838,45.4418437966883,0]},"properties":{"OBJECTID":111,"YEAR":2024,"REP_DATE":"Mon, 28 Oct 2024 05:00:00 GMT","OCC_DATE":"Mon, 28 Oct 2024 05:00:00 GMT","WEEKDAY":"Tuesday","OFF_CATEG":"Murder 1st Dgree","SECTOR":"25","DIVISION":"Central","NB_NAME_EN":"Vanier North","WARD":"Ward 12 - Rideau-Vanier","COUNCILLOR":"Stéphanie Plante"}},{"type":"Feature","id":112,"geometry":{"type":"Point","coordinates":[-75.7218289411956,45.4061020654739,0]},"properties":{"OBJECTID":112,"YEAR":2024,"REP_DATE":"Wed, 25 Dec 2024 05:00:00 GMT","OCC_DATE":"Wed, 25 Dec 2024 05:00:00 GMT","WEEKDAY":"Thursday","OFF_CATEG":"Murder 2nd Dgree","SECTOR":"21","DIVISION":"Central","NB_NAME_EN":"Hintonburg - Mechanicsville","WARD":"Ward 15 - Kitchissippi","COUNCILLOR":"Jeff Leiper"}},{"type":"Feature","id":113,"geometry":{"type":"Point","coordinates":[-75.722180461811,45.2579796721454,0]},"properties":{"OBJECTID":113,"YEAR":2025,"REP_DATE":"Fri, 10 Jan 2025 05:00:00 GMT","OCC_DATE":"Fri, 10 Jan 2025 05:00:00 GMT","WEEKDAY":"Saturday","OFF_CATEG":"Murder 2nd Dgree","SECTOR":"16","DIVISION":"West","NB_NAME_EN":"New Barrhaven - New Development - Stonebridge","WARD":"Ward 3 - Barrhaven West","COUNCILLOR":"David Hill"}},{"type":"Feature","id":114,"geometry":{"type":"Point","coordinates":[-75.5750061177179,45.4256425613213,0]},"properties":{"OBJECTID":114,"YEAR":2025,"REP_DATE":"Thu, 06 Feb 2025 05:00:00 GMT","OCC_DATE":"Thu, 06 Feb 2025 05:00:00 GMT","WEEKDAY":"Friday","OFF_CATEG":"Murder 1st Dgree","SECTOR":"31","DIVISION":"East","NB_NAME_EN":"Greenbelt - Mer Bleue","WARD":"Ward 19 - Orléans South-Navan","COUNCILLOR":"Catherine Kitts"}},{"type":"Feature","id":115,"geometry":{"type":"Point","coordinates":[-75.6494708911855,45.4457519376788,0]},"properties":{"OBJECTID":115,"YEAR":2025,"REP_DATE":"Sat, 15 Feb 2025 05:00:00 GMT","OCC_DATE":"Sat, 15 Feb 2025 05:00:00 GMT","WEEKDAY":"Sunday","OFF_CATEG":"Murder 2nd Dgree","SECTOR":"25","DIVISION":"Central","NB_NAME_EN":"Vanier North","WARD":"Ward 12 - Rideau-Vanier","COUNCILLOR":"Stéphanie Plante"}},{"type":"Feature","id":116,"geometry":{"type":"Point","coordinates":[-75.6541076638357,45.4231604018228,0]},"properties":{"OBJECTID":116,"YEAR":2025,"REP_DATE":"Wed, 19 Feb 2025 05:00:00 GMT","OCC_DATE":"Wed, 19 Feb 2025 05:00:00 GMT","WEEKDAY":"Thursday","OFF_CATEG":"Murder 2nd Dgree","SECTOR":"25","DIVISION":"Central","NB_NAME_EN":"Overbrook - McArthur","WARD":"Ward 13 - Rideau-Rockcliffe","COUNCILLOR":"Rawlson King"}},{"type":"Feature","id":117,"geometry":{"type":"Point","coordinates":[-75.7310348113158,45.2897287056433,0]},"properties":{"OBJECTID":117,"YEAR":2025,"REP_DATE":"Fri, 14 Mar 2025 05:00:00 GMT","OCC_DATE":"Fri, 14 Mar 2025 05:00:00 GMT","WEEKDAY":"Saturday","OFF_CATEG":"Murder 2nd Dgree","SECTOR":"16","DIVISION":"West","NB_NAME_EN":"New Barrhaven - New Development - Stonebridge","WARD":"Ward 24 - Barrhaven East","COUNCILLOR":"Wilson Lo"}},{"type":"Feature","id":118,"geometry":{"type":"Point","coordinates":[-75.7085657191658,45.4124824322519,0]},"properties":{"OBJECTID":118,"YEAR":2025,"REP_DATE":"Sat, 29 Mar 2025 05:00:00 GMT","OCC_DATE":"Sat, 29 Mar 2025 05:00:00 GMT","WEEKDAY":"Sunday","OFF_CATEG":"Murder 2nd Dgree","SECTOR":"22","DIVISION":"Central","NB_NAME_EN":"West Centertown","WARD":"Ward 14 - Somerset","COUNCILLOR":"Ariel Troster"}},{"type":"Feature","id":119,"geometry":{"type":"Point","coordinates":[-75.7784032316448,45.353022587222,0]},"properties":{"OBJECTID":119,"YEAR":2025,"REP_DATE":"Mon, 31 Mar 2025 05:00:00 GMT","OCC_DATE":"Sun, 16 Mar 2025 05:00:00 GMT","WEEKDAY":"Monday","OFF_CATEG":"Murder 1st Dgree","SECTOR":"15","DIVISION":"West","NB_NAME_EN":"Iris","WARD":"Ward 8 - College","COUNCILLOR":"Laine Johnson"}},{"type":"Feature","id":120,"geometry":{"type":"Point","coordinates":[-75.6790192885323,45.4333127056944,0]},"properties":{"OBJECTID":120,"YEAR":2025,"REP_DATE":"Tue, 01 Apr 2025 05:00:00 GMT","OCC_DATE":"Tue, 01 Apr 2025 05:00:00 GMT","WEEKDAY":"Wednesday","OFF_CATEG":"Murder 1st Dgree","SECTOR":"24","DIVISION":"Central","NB_NAME_EN":"Lowertown","WARD":"Ward 12 - Rideau-Vanier","COUNCILLOR":"Stéphanie Plante"}},{"type":"Feature","id":121,"geometry":{"type":"Point","coordinates":[-75.6273511070606,45.4487581372337,0]},"properties":{"OBJECTID":121,"YEAR":2025,"REP_DATE":"Fri, 04 Apr 2025 05:00:00 GMT","OCC_DATE":"Fri, 04 Apr 2025 05:00:00 GMT","WEEKDAY":"Saturday","OFF_CATEG":"Murder 2nd Dgree","SECTOR":"32","DIVISION":"East","NB_NAME_EN":"CFB Rockcliffe-NRC","WARD":"Ward 13 - Rideau-Rockcliffe","COUNCILLOR":"Rawlson King"}},{"type":"Feature","id":122,"geometry":{"type":"Point","coordinates":[-75.7548957616204,45.2692096013808,0]},"properties":{"OBJECTID":122,"YEAR":2025,"REP_DATE":"Sat, 05 Apr 2025 05:00:00 GMT","OCC_DATE":"Sat, 05 Apr 2025 05:00:00 GMT","WEEKDAY":"Sunday","OFF_CATEG":"Murder 1st Dgree","SECTOR":"16","DIVISION":"West","NB_NAME_EN":"Barrhaven","WARD":"Ward 3 - Barrhaven West","COUNCILLOR":"David Hill"}},{"type":"Feature","id":123,"geometry":{"type":"Point","coordinates":[-75.7628133201814,45.3342168788175,0]},"properties":{"OBJECTID":123,"YEAR":2025,"REP_DATE":"Sun, 06 Apr 2025 05:00:00 GMT","OCC_DATE":"Sun, 06 Apr 2025 05:00:00 GMT","WEEKDAY":"Monday","OFF_CATEG":"Murder 1st Dgree","SECTOR":"15","DIVISION":"West","NB_NAME_EN":"Woodvale - Craig Henry - Manordale - Estates of Arlington Woods","WARD":"Ward 9 - Knoxdale-Merivale","COUNCILLOR":"Sean Devine"}},{"type":"Feature","id":124,"geometry":{"type":"Point","coordinates":[-75.7766625129446,45.2792392962545,0]},"properties":{"OBJECTID":124,"YEAR":2025,"REP_DATE":"Tue, 27 May 2025 05:00:00 GMT","OCC_DATE":"Tue, 27 May 2025 05:00:00 GMT","WEEKDAY":"Wednesday","OFF_CATEG":"Murder 1st Dgree","SECTOR":"16","DIVISION":"West","NB_NAME_EN":"Barrhaven","WARD":"Ward 3 - Barrhaven West","COUNCILLOR":"David Hill"}},{"type":"Feature","id":125,"geometry":{"type":"Point","coordinates":[-75.6436378340394,45.3495210950035,0]},"properties":{"OBJECTID":125,"YEAR":2025,"REP_DATE":"Mon, 02 Jun 2025 05:00:00 GMT","OCC_DATE":"Mon, 02 Jun 2025 05:00:00 GMT","WEEKDAY":"Tuesday","OFF_CATEG":"Murder 2nd Dgree","SECTOR":"35","DIVISION":"East","NB_NAME_EN":"Emerald Woods - Sawmill Creek","WARD":"Ward 10 - Gloucester-Southgate","COUNCILLOR":"Jessica Bradley"}},{"type":"Feature","id":126,"geometry":{"type":"Point","coordinates":[-75.6494708911855,45.4457519376788,0]},"properties":{"OBJECTID":126,"YEAR":2025,"REP_DATE":"Thu, 02 Oct 2025 05:00:00 GMT","OCC_DATE":"Thu, 02 Oct 2025 05:00:00 GMT","WEEKDAY":"Friday","OFF_CATEG":"Murder 2nd Dgree","SECTOR":"25","DIVISION":"Central","NB_NAME_EN":"Vanier North","WARD":"Ward 12 - Rideau-Vanier","COUNCILLOR":"Stéphanie Plante"}},{"type":"Feature","id":127,"geometry":{"type":"Point","coordinates":[-75.702145877135,45.4129832868649,0]},"properties":{"OBJECTID":127,"YEAR":2025,"REP_DATE":"Wed, 15 Oct 2025 05:00:00 GMT","OCC_DATE":"Wed, 15 Oct 2025 05:00:00 GMT","WEEKDAY":"Thursday","OFF_CATEG":"Murder 1st Dgree","SECTOR":"23","DIVISION":"Central","NB_NAME_EN":"Centretown","WARD":"Ward 14 - Somerset","COUNCILLOR":"Ariel Troster"}},{"type":"Feature","id":128,"geometry":{"type":"Point","coordinates":[-75.6873170858696,45.4304295023362,0]},"properties":{"OBJECTID":128,"YEAR":2025,"REP_DATE":"Fri, 17 Oct 2025 05:00:00 GMT","OCC_DATE":"Fri, 17 Oct 2025 05:00:00 GMT","WEEKDAY":"Saturday","OFF_CATEG":"Murder 2nd Dgree","SECTOR":"24","DIVISION":"Central","NB_NAME_EN":"Lowertown","WARD":"Ward 12 - Rideau-Vanier","COUNCILLOR":"Stéphanie Plante"}},{"type":"Feature","id":129,"geometry":{"type":"Point","coordinates":[-75.6288091726652,45.4021832925928,0]},"properties":{"OBJECTID":129,"YEAR":2025,"REP_DATE":"Sat, 18 Oct 2025 05:00:00 GMT","OCC_DATE":"Sat, 18 Oct 2025 05:00:00 GMT","WEEKDAY":"Sunday","OFF_CATEG":"Murder 1st Dgree","SECTOR":"33","DIVISION":"East","NB_NAME_EN":"Elmvale - Eastway - Riverview - Riverview Park West","WARD":"Ward 18 - Alta Vista","COUNCILLOR":"Marty Carr"}},{"type":"Feature","id":130,"geometry":{"type":"Point","coordinates":[-75.6485123950735,45.449394829064,0]},"properties":{"OBJECTID":130,"YEAR":2025,"REP_DATE":"Wed, 22 Oct 2025 05:00:00 GMT","OCC_DATE":"Wed, 22 Oct 2025 05:00:00 GMT","WEEKDAY":"Thursday","OFF_CATEG":"Murder 2nd Dgree","SECTOR":"32","DIVISION":"East","NB_NAME_EN":"CFB Rockcliffe-NRC","WARD":"Ward 13 - Rideau-Rockcliffe","COUNCILLOR":"Rawlson King"}},{"type":"Feature","id":131,"geometry":{"type":"Point","coordinates":[-75.8011125070345,45.3547475812034,0]},"properties":{"OBJECTID":131,"YEAR":2025,"REP_DATE":"Mon, 17 Nov 2025 05:00:00 GMT","OCC_DATE":"Mon, 17 Nov 2025 05:00:00 GMT","WEEKDAY":"Tuesday","OFF_CATEG":"Murder 2nd Dgree","SECTOR":"14","DIVISION":"West","NB_NAME_EN":"Whitehaven - Queensway Terrace North","WARD":"Ward 7 - Bay","COUNCILLOR":"Theresa Kavanagh"}}]}